{
  "type": "FeatureCollection",
  "features": [
    {
      "type": "Feature",
      "properties": {
        "norad_id": 66936,
        "name": "STARLINK-36160",
        "group": "last-30-days",
        "lat": 32.53450785787887,
        "lon": 70.40691996977009,
        "alt_km": 286.08676713216755,
        "timestamp": "2025-12-14T11:29:48.800793+00:00",
        "meta_object_name": "STARLINK-36160",
        "meta_object_id": "2025-286M",
        "meta_epoch": "2025-12-13T14:00:03.000384",
        "meta_mean_motion": 15.96252271,
        "meta_eccentricity": 7.402e-05,
        "meta_inclination": 53.1571,
        "meta_ra_of_asc_node": 46.4166,
        "meta_arg_of_pericenter": 61.1562,
        "meta_mean_anomaly": 234.6019,
        "meta_ephemeris_type": 0,
        "meta_classification_type": "U",
        "meta_norad_cat_id": 66936,
        "meta_element_set_no": 999,
        "meta_rev_at_epoch": 212,
        "meta_bstar": -0.0029142221,
        "meta_mean_motion_dot": -0.01239987,
        "meta_mean_motion_ddot": 0.00047175209,
        "tle_line1": "1 66936U 25286M   25347.58336806 -.01239987  47175-3 -29142-2 0  9991",
        "tle_line2": "2 66936  53.1571  46.4166 0000740  61.1562 234.6019 15.96252271  2123"
      },
      "geometry": {
        "type": "Point",
        "coordinates": [
          70.40691996977009,
          32.53450785787887
        ]
      }
    },
    {
      "type": "Feature",
      "properties": {
        "norad_id": 66937,
        "name": "STARLINK-36165",
        "group": "last-30-days",
        "lat": 33.653030700381024,
        "lon": 71.77318012852747,
        "alt_km": 285.5136005077766,
        "timestamp": "2025-12-14T11:29:48.800805+00:00",
        "meta_object_name": "STARLINK-36165",
        "meta_object_id": "2025-286N",
        "meta_epoch": "2025-12-13T14:00:03.000384",
        "meta_mean_motion": 15.96326523,
        "meta_eccentricity": 9.777e-05,
        "meta_inclination": 53.157,
        "meta_ra_of_asc_node": 46.4134,
        "meta_arg_of_pericenter": 56.5915,
        "meta_mean_anomaly": 240.5321,
        "meta_ephemeris_type": 0,
        "meta_classification_type": "U",
        "meta_norad_cat_id": 66937,
        "meta_element_set_no": 999,
        "meta_rev_at_epoch": 212,
        "meta_bstar": -0.0029066576,
        "meta_mean_motion_dot": -0.01241799,
        "meta_mean_motion_ddot": 0.0004733669,
        "tle_line1": "1 66937U 25286N   25347.58336806 -.01241799  47337-3 -29067-2 0  9992",
        "tle_line2": "2 66937  53.1570  46.4134 0000977  56.5915 240.5321 15.96326523  2124"
      },
      "geometry": {
        "type": "Point",
        "coordinates": [
          71.77318012852747,
          33.653030700381024
        ]
      }
    },
    {
      "type": "Feature",
      "properties": {
        "norad_id": 66938,
        "name": "STARLINK-36155",
        "group": "last-30-days",
        "lat": 34.76478138209439,
        "lon": 73.18691951011574,
        "alt_km": 285.2519219036012,
        "timestamp": "2025-12-14T11:29:48.800815+00:00",
        "meta_object_name": "STARLINK-36155",
        "meta_object_id": "2025-286P",
        "meta_epoch": "2025-12-13T14:00:03.000384",
        "meta_mean_motion": 15.96403566,
        "meta_eccentricity": 8.258e-05,
        "meta_inclination": 53.1569,
        "meta_ra_of_asc_node": 46.4105,
        "meta_arg_of_pericenter": 61.8843,
        "meta_mean_anomaly": 236.6101,
        "meta_ephemeris_type": 0,
        "meta_classification_type": "U",
        "meta_norad_cat_id": 66938,
        "meta_element_set_no": 999,
        "meta_rev_at_epoch": 212,
        "meta_bstar": -0.0028998999,
        "meta_mean_motion_dot": -0.01244094,
        "meta_mean_motion_ddot": 0.00047533592,
        "tle_line1": "1 66938U 25286P   25347.58336806 -.01244094  47534-3 -28999-2 0  9996",
        "tle_line2": "2 66938  53.1569  46.4105 0000825  61.8843 236.6101 15.96403566  2127"
      },
      "geometry": {
        "type": "Point",
        "coordinates": [
          73.18691951011574,
          34.76478138209439
        ]
      }
    },
    {
      "type": "Feature",
      "properties": {
        "norad_id": 66939,
        "name": "STARLINK-36154",
        "group": "last-30-days",
        "lat": 37.1086525396117,
        "lon": 76.37656479459523,
        "alt_km": 284.37808819168276,
        "timestamp": "2025-12-14T11:29:48.800826+00:00",
        "meta_object_name": "STARLINK-36154",
        "meta_object_id": "2025-286Q",
        "meta_epoch": "2025-12-13T14:00:03.000384",
        "meta_mean_motion": 15.96579532,
        "meta_eccentricity": 9.152e-05,
        "meta_inclination": 53.1569,
        "meta_ra_of_asc_node": 46.4044,
        "meta_arg_of_pericenter": 57.24,
        "meta_mean_anomaly": 244.2299,
        "meta_ephemeris_type": 0,
        "meta_classification_type": "U",
        "meta_norad_cat_id": 66939,
        "meta_element_set_no": 999,
        "meta_rev_at_epoch": 212,
        "meta_bstar": -0.0029221545,
        "meta_mean_motion_dot": -0.01265527,
        "meta_mean_motion_ddot": 0.00049123236,
        "tle_line1": "1 66939U 25286Q   25347.58336806 -.01265527  49123-3 -29222-2 0  9997",
        "tle_line2": "2 66939  53.1569  46.4044 0000915  57.2400 244.2299 15.96579532  2128"
      },
      "geometry": {
        "type": "Point",
        "coordinates": [
          76.37656479459523,
          37.1086525396117
        ]
      }
    },
    {
      "type": "Feature",
      "properties": {
        "norad_id": 66940,
        "name": "STARLINK-36121",
        "group": "last-30-days",
        "lat": 38.12027555112822,
        "lon": 77.85459655675218,
        "alt_km": 284.05644135083367,
        "timestamp": "2025-12-14T11:29:48.800838+00:00",
        "meta_object_name": "STARLINK-36121",
        "meta_object_id": "2025-286R",
        "meta_epoch": "2025-12-13T14:00:03.000384",
        "meta_mean_motion": 15.96652562,
        "meta_eccentricity": 8.37e-05,
        "meta_inclination": 53.1568,
        "meta_ra_of_asc_node": 46.4014,
        "meta_arg_of_pericenter": 53.6254,
        "meta_mean_anomaly": 249.159,
        "meta_ephemeris_type": 0,
        "meta_classification_type": "U",
        "meta_norad_cat_id": 66940,
        "meta_element_set_no": 999,
        "meta_rev_at_epoch": 212,
        "meta_bstar": -0.0029142906,
        "meta_mean_motion_dot": -0.01267156,
        "meta_mean_motion_ddot": 0.00049275409,
        "tle_line1": "1 66940U 25286R   25347.58336806 -.01267156  49275-3 -29143-2 0  9999",
        "tle_line2": "2 66940  53.1568  46.4014 0000837  53.6254 249.1590 15.96652562  2129"
      },
      "geometry": {
        "type": "Point",
        "coordinates": [
          77.85459655675218,
          38.12027555112822
        ]
      }
    },
    {
      "type": "Feature",
      "properties": {
        "norad_id": 66941,
        "name": "STARLINK-36088",
        "group": "last-30-days",
        "lat": 36.023951422458204,
        "lon": 74.86243268869356,
        "alt_km": 284.7790741001636,
        "timestamp": "2025-12-14T11:29:48.800849+00:00",
        "meta_object_name": "STARLINK-36088",
        "meta_object_id": "2025-286S",
        "meta_epoch": "2025-12-13T14:00:03.000384",
        "meta_mean_motion": 15.96501922,
        "meta_eccentricity": 9.18e-05,
        "meta_inclination": 53.1568,
        "meta_ra_of_asc_node": 46.4071,
        "meta_arg_of_pericenter": 60.4178,
        "meta_mean_anomaly": 239.6683,
        "meta_ephemeris_type": 0,
        "meta_classification_type": "U",
        "meta_norad_cat_id": 66941,
        "meta_element_set_no": 999,
        "meta_rev_at_epoch": 212,
        "meta_bstar": -0.0029292689,
        "meta_mean_motion_dot": -0.01263255,
        "meta_mean_motion_ddot": 0.00048923735,
        "tle_line1": "1 66941U 25286S   25347.58336806 -.01263255  48924-3 -29293-2 0  9992",
        "tle_line2": "2 66941  53.1568  46.4071 0000918  60.4178 239.6683 15.96501922  2124"
      },
      "geometry": {
        "type": "Point",
        "coordinates": [
          74.86243268869356,
          36.023951422458204
        ]
      }
    },
    {
      "type": "Feature",
      "properties": {
        "norad_id": 66942,
        "name": "STARLINK-36100",
        "group": "last-30-days",
        "lat": 39.15716648266227,
        "lon": 79.44389122161071,
        "alt_km": 283.81339087139804,
        "timestamp": "2025-12-14T11:29:48.800858+00:00",
        "meta_object_name": "STARLINK-36100",
        "meta_object_id": "2025-286T",
        "meta_epoch": "2025-12-13T14:00:03.000384",
        "meta_mean_motion": 15.96732232,
        "meta_eccentricity": 6.91e-05,
        "meta_inclination": 53.1567,
        "meta_ra_of_asc_node": 46.3986,
        "meta_arg_of_pericenter": 55.7879,
        "meta_mean_anomaly": 248.3802,
        "meta_ephemeris_type": 0,
        "meta_classification_type": "U",
        "meta_norad_cat_id": 66942,
        "meta_element_set_no": 999,
        "meta_rev_at_epoch": 205,
        "meta_bstar": -0.0029221489,
        "meta_mean_motion_dot": -0.01276017,
        "meta_mean_motion_ddot": 0.00049945535,
        "tle_line1": "1 66942U 25286T   25347.58336806 -.01276017  49946-3 -29221-2 0  9999",
        "tle_line2": "2 66942  53.1567  46.3986 0000691  55.7879 248.3802 15.96732232  2053"
      },
      "geometry": {
        "type": "Point",
        "coordinates": [
          79.44389122161071,
          39.15716648266227
        ]
      }
    }
  ]
}